{
  "type": "FeatureCollection",
  "features": [
    {
      "type": "Feature",
      "properties": {
        "norad_id": 65731,
        "name": "1998-067XK",
        "group": "stations",
        "lat": 38.500181128376994,
        "lon": 105.61238304043877,
        "alt_km": 357.6746441450814,
        "timestamp": "2025-12-26T15:29:38.202162+00:00",
        "meta_object_name": "1998-067XK",
        "meta_object_id": "1998-067XK",
        "meta_epoch": "2025-12-26T04:33:59.551776",
        "meta_mean_motion": 15.68357423,
        "meta_eccentricity": 0.00050322,
        "meta_inclination": 51.6285,
        "meta_ra_of_asc_node": 68.8624,
        "meta_arg_of_pericenter": 329.4529,
        "meta_mean_anomaly": 30.6174,
        "meta_ephemeris_type": 0,
        "meta_classification_type": "U",
        "meta_norad_cat_id": 65731,
        "meta_element_set_no": 999,
        "meta_rev_at_epoch": 1525,
        "meta_bstar": 0.0008671842,
        "meta_mean_motion_dot": 0.001002,
        "meta_mean_motion_ddot": 0,
        "tle_line1": "1 65731U 98067XK  25360.19027259  .00100200  00000+0  86718-3 0  9998",
        "tle_line2": "2 65731  51.6285  68.8624 0005032 329.4529  30.6174 15.68357423 15257"
      },
      "geometry": {
        "type": "Point",
        "coordinates": [
          105.61238304043877,
          38.500181128376994
        ]
      }
    },
    {
      "type": "Feature",
      "properties": {
        "norad_id": 65732,
        "name": "RSP-03",
        "group": "stations",
        "lat": -9.253731362532577,
        "lon": -107.09594135547583,
        "alt_km": 357.64313126773413,
        "timestamp": "2025-12-26T15:29:38.202172+00:00",
        "meta_object_name": "RSP-03",
        "meta_object_id": "1998-067XL",
        "meta_epoch": "2025-12-26T07:03:15.491520",
        "meta_mean_motion": 15.72184248,
        "meta_eccentricity": 0.00060645,
        "meta_inclination": 51.6258,
        "meta_ra_of_asc_node": 67.2883,
        "meta_arg_of_pericenter": 337.3449,
        "meta_mean_anomaly": 22.7281,
        "meta_ephemeris_type": 0,
        "meta_classification_type": "U",
        "meta_norad_cat_id": 65732,
        "meta_element_set_no": 999,
        "meta_rev_at_epoch": 1529,
        "meta_bstar": 0.0010358178,
        "meta_mean_motion_dot": 0.00141327,
        "meta_mean_motion_ddot": 0,
        "tle_line1": "1 65732U 98067XL  25360.29392930  .00141327  00000+0  10358-2 0  9992",
        "tle_line2": "2 65732  51.6258  67.2883 0006064 337.3449  22.7281 15.72184248 15296"
      },
      "geometry": {
        "type": "Point",
        "coordinates": [
          -107.09594135547583,
          -9.253731362532577
        ]
      }
    },
    {
      "type": "Feature",
      "properties": {
        "norad_id": 65733,
        "name": "GHS-01",
        "group": "stations",
        "lat": 38.67164072805688,
        "lon": -155.99575712774268,
        "alt_km": 324.8829399299284,
        "timestamp": "2025-12-26T15:29:38.202185+00:00",
        "meta_object_name": "GHS-01",
        "meta_object_id": "1998-067XM",
        "meta_epoch": "2025-12-25T11:39:15.872832",
        "meta_mean_motion": 15.80737686,
        "meta_eccentricity": 0.0009282,
        "meta_inclination": 51.6282,
        "meta_ra_of_asc_node": 69.3856,
        "meta_arg_of_pericenter": 357.4612,
        "meta_mean_anomaly": 2.6342,
        "meta_ephemeris_type": 0,
        "meta_classification_type": "U",
        "meta_norad_cat_id": 65733,
        "meta_element_set_no": 999,
        "meta_rev_at_epoch": 1519,
        "meta_bstar": 0.0014102,
        "meta_mean_motion_dot": 0.0028642,
        "meta_mean_motion_ddot": 0,
        "tle_line1": "1 65733U 98067XM  25359.48560038  .00286420  00000+0  14102-2 0  9993",
        "tle_line2": "2 65733  51.6282  69.3856 0009282 357.4612   2.6342 15.80737686 15190"
      },
      "geometry": {
        "type": "Point",
        "coordinates": [
          -155.99575712774268,
          38.67164072805688
        ]
      }
    },
    {
      "type": "Feature",
      "properties": {
        "norad_id": 65941,
        "name": "YOTSUBA-KULOVER",
        "group": "stations",
        "lat": -14.412835330698435,
        "lon": -98.26132814951292,
        "alt_km": 387.9190031751068,
        "timestamp": "2025-12-26T15:29:38.202196+00:00",
        "meta_object_name": "YOTSUBA-KULOVER",
        "meta_object_id": "1998-067XN",
        "meta_epoch": "2025-12-26T06:58:00.982560",
        "meta_mean_motion": 15.61282637,
        "meta_eccentricity": 0.00025945,
        "meta_inclination": 51.6287,
        "meta_ra_of_asc_node": 71.7809,
        "meta_arg_of_pericenter": 4.0167,
        "meta_mean_anomaly": 356.0846,
        "meta_ephemeris_type": 0,
        "meta_classification_type": "U",
        "meta_norad_cat_id": 65941,
        "meta_element_set_no": 999,
        "meta_rev_at_epoch": 1197,
        "meta_bstar": 0.00078259274,
        "meta_mean_motion_dot": 0.00067818,
        "meta_mean_motion_ddot": 0,
        "tle_line1": "1 65941U 98067XN  25360.29028915  .00067818  00000+0  78259-3 0  9990",
        "tle_line2": "2 65941  51.6287  71.7809 0002594   4.0167 356.0846 15.61282637 11977"
      },
      "geometry": {
        "type": "Point",
        "coordinates": [
          -98.26132814951292,
          -14.412835330698435
        ]
      }
    },
    {
      "type": "Feature",
      "properties": {
        "norad_id": 65942,
        "name": "BOTAN",
        "group": "stations",
        "lat": 3.7706923522186826,
        "lon": 71.88374841619822,
        "alt_km": 368.75440528967465,
        "timestamp": "2025-12-26T15:29:38.202206+00:00",
        "meta_object_name": "BOTAN",
        "meta_object_id": "1998-067XP",
        "meta_epoch": "2025-12-26T06:16:59.186496",
        "meta_mean_motion": 15.65764199,
        "meta_eccentricity": 0.00035647,
        "meta_inclination": 51.6275,
        "meta_ra_of_asc_node": 70.8385,
        "meta_arg_of_pericenter": 345.774,
        "meta_mean_anomaly": 14.3155,
        "meta_ephemeris_type": 0,
        "meta_classification_type": "U",
        "meta_norad_cat_id": 65942,
        "meta_element_set_no": 999,
        "meta_rev_at_epoch": 1198,
        "meta_bstar": 0.0010674259,
        "meta_mean_motion_dot": 0.00111235,
        "meta_mean_motion_ddot": 0,
        "tle_line1": "1 65942U 98067XP  25360.26179614  .00111235  00000+0  10674-2 0  9990",
        "tle_line2": "2 65942  51.6275  70.8385 0003564 345.7740  14.3155 15.65764199 11984"
      },
      "geometry": {
        "type": "Point",
        "coordinates": [
          71.88374841619822,
          3.7706923522186826
        ]
      }
    },
    {
      "type": "Feature",
      "properties": {
        "norad_id": 65943,
        "name": "E-KAGAKU-1",
        "group": "stations",
        "lat": -14.046005592559261,
        "lon": -98.57222427478149,
        "alt_km": 386.82816213433216,
        "timestamp": "2025-12-26T15:29:38.202219+00:00",
        "meta_object_name": "E-KAGAKU-1",
        "meta_object_id": "1998-067XQ",
        "meta_epoch": "2025-12-25T10:59:52.984032",
        "meta_mean_motion": 15.61171734,
        "meta_eccentricity": 0.00014574,
        "meta_inclination": 51.631,
        "meta_ra_of_asc_node": 75.9814,
        "meta_arg_of_pericenter": 327.9549,
        "meta_mean_anomaly": 32.1355,
        "meta_ephemeris_type": 0,
        "meta_classification_type": "U",
        "meta_norad_cat_id": 65943,
        "meta_element_set_no": 999,
        "meta_rev_at_epoch": 1184,
        "meta_bstar": 0.00081459816,
        "meta_mean_motion_dot": 0.00070327,
        "meta_mean_motion_ddot": 0,
        "tle_line1": "1 65943U 98067XQ  25359.45825213  .00070327  00000+0  81460-3 0  9991",
        "tle_line2": "2 65943  51.6310  75.9814 0001457 327.9549  32.1355 15.61171734 11844"
      },
      "geometry": {
        "type": "Point",
        "coordinates": [
          -98.57222427478149,
          -14.046005592559261
        ]
      }
    },
    {
      "type": "Feature",
      "properties": {
        "norad_id": 66052,
        "name": "HRC MONOBLOCK CAMERA",
        "group": "stations",
        "lat": -48.697937518186734,
        "lon": -43.48423956092769,
        "alt_km": 405.03599937969284,
        "timestamp": "2025-12-26T15:29:38.202229+00:00",
        "meta_object_name": "HRC MONOBLOCK CAMERA",
        "meta_object_id": "1998-067XR",
        "meta_epoch": "2025-12-26T05:09:17.689248",
        "meta_mean_motion": 15.5507279,
        "meta_eccentricity": 0.00019885,
        "meta_inclination": 51.6302,
        "meta_ra_of_asc_node": 74.2731,
        "meta_arg_of_pericenter": 250.8645,
        "meta_mean_anomaly": 109.213,
        "meta_ephemeris_type": 0,
        "meta_classification_type": "U",
        "meta_norad_cat_id": 66052,
        "meta_element_set_no": 999,
        "meta_rev_at_epoch": 1093,
        "meta_bstar": 0.00051624827,
        "meta_mean_motion_dot": 0.00035049,
        "meta_mean_motion_ddot": 0,
        "tle_line1": "1 66052U 98067XR  25360.21478807  .00035049  00000+0  51625-3 0  9994",
        "tle_line2": "2 66052  51.6302  74.2731 0001988 250.8645 109.2130 15.55072790 10938"
      },
      "geometry": {
        "type": "Point",
        "coordinates": [
          -43.48423956092769,
          -48.697937518186734
        ]
      }
    }
  ]
}